OBJECT_NAME,OBJECT_ID,EPOCH,MEAN_MOTION,ECCENTRICITY,INCLINATION,RA_OF_ASC_NODE,ARG_OF_PERICENTER,MEAN_ANOMALY,EPHEMERIS_TYPE,CLASSIFICATION_TYPE,NORAD_CAT_ID,ELEMENT_SET_NO,REV_AT_EPOCH,BSTAR,MEAN_MOTION_DOT,MEAN_MOTION_DDOT
M2 PATHFINDER,2020-037E,2026-07-18T12:00:39.445920,15.04796790,.00126028,97.8140,31.0865,52.1110,308.1253,0,U,45727,999,33020,.58406323E-4,.761E-5,0
NETSAT-4,2020-068U,2026-07-18T11:37:48.258048,15.44824572,.00051455,97.8607,210.2643,181.7593,178.3637,0,U,46504,999,32060,.19939976E-3,.925E-4,0
NETSAT-3,2020-068V,2026-07-18T21:40:49.408032,15.43686461,.00042942,97.8661,208.8957,195.4315,164.6802,0,U,46505,999,32057,.23356569E-3,.1044E-3,0
NETSAT-1,2020-068W,2026-07-18T18:02:43.622592,15.35293523,.00026466,97.8760,202.6825,241.4202,118.6774,0,U,46506,999,32014,.19126478E-3,.6465E-4,0
NETSAT-2,2020-068X,2026-07-18T22:20:41.784288,15.47266347,.00026919,97.8621,210.7650,193.0874,167.0306,0,U,46507,999,32064,.2630972E-3,.1331E-3,0
GREENCUBE (IO-117),2022-080E,2026-07-18T14:56:54.559680,6.42583326,.00090811,70.1404,287.3145,282.7035,77.2609,0,U,53109,999,9408,0,-.3E-7,0
SITRO-AIS 5 (KATYS),2023-091L,2026-07-18T22:11:12.333984,15.30111793,.00102538,97.5038,264.1382,359.1430,0.9791,0,U,57176,999,16919,.21763923E-3,.6272E-4,0
SITRO-AIS 6 (CHIRKIN),2023-091AC,2026-07-18T21:53:40.977312,15.26476082,.00107798,97.5046,263.0738,3.4888,356.6424,0,U,57192,999,16912,.19743183E-3,.5082E-4,0
SITRO-AIS 8 (ANOKHIN),2023-091AD,2026-07-18T22:47:55.683456,15.32914730,.00091225,97.5034,265.8851,354.2204,5.8931,0,U,57193,999,16931,.23446575E-3,.7382E-4,0
SITRO-AIS 7 (FARTUSHNIY),2023-091AE,2026-07-18T22:07:46.711488,15.26148935,.00107498,97.5042,262.8917,4.8213,355.3127,0,U,57194,999,16911,.19451316E-3,.4956E-4,0
SITRO-AIS 10 (BURDAEV),2023-091AK,2026-07-18T21:49:42.341376,15.39710977,.00045629,97.5060,271.2341,324.5227,35.5715,0,U,57199,999,16964,.27069952E-3,.10618E-3,0
SITRO-AIS 9 (SHCHUKIN),2023-091AM,2026-07-18T22:42:40.078944,15.39194439,.00048136,97.5058,270.9762,325.1412,34.9518,0,U,57201,999,16963,.27745122E-3,.10702E-3,0
SITRO-AIS 12 (SMIRENNIY),2023-091AQ,2026-07-18T22:20:26.602944,15.39489947,.00044385,97.5071,271.4476,316.9020,43.1878,0,U,57204,999,16965,.28022055E-3,.10915E-3,0
SITRO-AIS 11 (SHEFFER),2023-091AU,2026-07-18T22:26:50.241408,15.39936833,.00043669,97.5069,271.7193,315.9681,44.1216,0,U,57208,999,16967,.28724425E-3,.11357E-3,0
SITRO-AIS 25,2024-039R,2026-07-18T22:21:19.566144,14.93655419,.01430891,95.3889,256.9061,216.3133,142.8319,0,U,59066,999,12946,.11831435E-3,.1494E-4,0
SITRO-AIS 26,2024-039S,2026-07-18T22:29:36.612384,14.93446147,.014342,95.3890,256.8011,216.9098,142.2193,0,U,59067,999,12945,.10391674E-3,.1301E-4,0
SITRO-AIS 27,2024-039T,2026-07-18T23:10:19.820352,14.93870420,.0142543,95.3894,257.1072,215.3251,143.8468,0,U,59068,999,12948,.13694622E-3,.1742E-4,0
SITRO-AIS 28,2024-039U,2026-07-18T22:36:49.022784,14.93904923,.01424053,95.3894,257.1402,215.2486,143.9261,0,U,59071,999,12948,.10565588E-3,.1337E-4,0
GRBBETA,2024-128C,2026-07-18T21:00:58.056480,15.06822536,.00365906,61.9889,105.0706,141.4995,218.8719,0,U,60237,999,11104,.12621547E-3,.1695E-4,0
OOV-CUBE (TUBSAT-30),2024-128F,2026-07-18T20:38:15.638208,15.02882322,.00406528,61.9941,115.1222,140.8126,219.5921,0,U,60240,999,11087,.83560792E-4,.929E-5,0
ROBUSTA-3A (MEDITERRANEE),2024-128J,2026-07-18T21:09:57.091392,15.12016370,.00376384,61.9861,96.1307,134.3588,226.0602,0,U,60243,999,11121,.22837551E-3,.3779E-4,0
LASARSAT,2024-247Q,2026-07-18T22:23:23.875872,15.48202624,.00079764,44.9739,83.5637,189.9528,170.1206,0,U,62391,999,8823,.39367272E-3,.20905E-3,0
CROCUBE,2024-247T,2026-07-18T16:41:52.956384,15.50367216,.00081473,44.9712,81.6809,194.4286,165.6374,0,U,62394,999,8823,.40085876E-3,.23011E-3,0
FORESAIL-1 PRIME,2025-276DS,2026-07-18T18:02:17.677536,15.18955093,.00025805,97.4186,272.4479,37.1807,322.9605,0,U,66778,999,3519,.11424417E-3,.232E-4,0
KNACKSAT-2,1998-067XZ,2026-07-18T01:44:50.703648,15.62605935,.00079174,51.6275,138.8026,337.9309,22.1343,0,U,67683,999,2510,.3768944E-3,.34011E-3,0
