M2 PATHFINDER           
1 45727U 20037E   26199.50045655  .00000761  00000+0  58406-4 0  9994
2 45727  97.8140  31.0865 0012602  52.1110 308.1253 15.04796790330208
NETSAT-4                
1 46504U 20068U   26199.48458632  .00009250  00000+0  19940-3 0  9993
2 46504  97.8607 210.2643 0005145 181.7593 178.3637 15.44824572320603
NETSAT-3                
1 46505U 20068V   26199.90334963  .00010440  00000+0  23357-3 0  9991
2 46505  97.8661 208.8957 0004294 195.4315 164.6802 15.43686461320573
NETSAT-1                
1 46506U 20068W   26199.75189378  .00006465  00000+0  19126-3 0  9994
2 46506  97.8760 202.6825 0002646 241.4202 118.6774 15.35293523320140
NETSAT-2                
1 46507U 20068X   26199.93103917  .00013310  00000+0  26310-3 0  9990
2 46507  97.8621 210.7650 0002691 193.0874 167.0306 15.47266347320641
GREENCUBE (IO-117)      
1 53109U 22080E   26199.62285370 -.00000003  00000+0  00000+0 0  9992
2 53109  70.1404 287.3145 0009081 282.7035  77.2609  6.42583326 94082
SITRO-AIS 5 (KATYS)     
1 57176U 23091L   26199.92444831  .00006272  00000+0  21764-3 0  9992
2 57176  97.5038 264.1382 0010253 359.1430   0.9791 15.30111793169195
SITRO-AIS 6 (CHIRKIN)   
1 57192U 23091AC  26199.91227983  .00005082  00000+0  19743-3 0  9998
2 57192  97.5046 263.0738 0010779   3.4888 356.6424 15.26476082169121
SITRO-AIS 8 (ANOKHIN)   
1 57193U 23091AD  26199.94995004  .00007382  00000+0  23447-3 0  9999
2 57193  97.5034 265.8851 0009122 354.2204   5.8931 15.32914730169315
SITRO-AIS 7 (FARTUSHNIY)
1 57194U 23091AE  26199.92206842  .00004956  00000+0  19451-3 0  9997
2 57194  97.5042 262.8917 0010749   4.8213 355.3127 15.26148935169117
SITRO-AIS 10 (BURDAEV)  
1 57199U 23091AK  26199.90951784  .00010618  00000+0  27070-3 0  9990
2 57199  97.5060 271.2341 0004562 324.5227  35.5715 15.39710977169643
SITRO-AIS 9 (SHCHUKIN)  
1 57201U 23091AM  26199.94629721  .00010702  00000+0  27745-3 0  9994
2 57201  97.5058 270.9762 0004813 325.1412  34.9518 15.39194439169631
SITRO-AIS 12 (SMIRENNIY)
1 57204U 23091AQ  26199.93086346  .00010915  00000+0  28022-3 0  9991
2 57204  97.5071 271.4476 0004438 316.9020  43.1878 15.39489947169657
SITRO-AIS 11 (SHEFFER)  
1 57208U 23091AU  26199.93530372  .00011357  00000+0  28724-3 0  9998
2 57208  97.5069 271.7193 0004366 315.9681  44.1216 15.39936833169679
SITRO-AIS 25            
1 59066U 24039R   26199.93147646  .00001494  00000+0  11831-3 0  9995
2 59066  95.3889 256.9061 0143089 216.3133 142.8319 14.93655419129460
SITRO-AIS 26            
1 59067U 24039S   26199.93722931  .00001301  00000+0  10392-3 0  9990
2 59067  95.3890 256.8011 0143420 216.9098 142.2193 14.93446147129451
SITRO-AIS 27            
1 59068U 24039T   26199.96550718  .00001742  00000+0  13695-3 0  9994
2 59068  95.3894 257.1072 0142543 215.3251 143.8468 14.93870420129486
SITRO-AIS 28            
1 59071U 24039U   26199.94223406  .00001337  00000+0  10566-3 0  9991
2 59071  95.3894 257.1402 0142405 215.2486 143.9261 14.93904923129481
GRBBETA                 
1 60237U 24128C   26199.87567195  .00001695  00000+0  12622-3 0  9996
2 60237  61.9889 105.0706 0036590 141.4995 218.8719 15.06822536111047
OOV-CUBE (TUBSAT-30)    
1 60240U 24128F   26199.85990322  .00000929  00000+0  83561-4 0  9990
2 60240  61.9941 115.1222 0040652 140.8126 219.5921 15.02882322110876
ROBUSTA-3A (MEDITERRAN*)
1 60243U 24128J   26199.88191078  .00003779  00000+0  22838-3 0  9992
2 60243  61.9861  96.1307 0037638 134.3588 226.0602 15.12016370111213
LASARSAT                
1 62391U 24247Q   26199.93291523  .00020905  00000+0  39367-3 0  9997
2 62391  44.9739  83.5637 0007976 189.9528 170.1206 15.48202624 88234
CROCUBE                 
1 62394U 24247T   26199.69575181  .00023011  00000+0  40086-3 0  9999
2 62394  44.9712  81.6809 0008147 194.4286 165.6374 15.50367216 88238
FORESAIL-1 PRIME        
1 66778U 25276DS  26199.75159349  .00002320  00000+0  11424-3 0  9997
2 66778  97.4186 272.4479 0002580  37.1807 322.9605 15.18955093 35198
KNACKSAT-2              
1 67683U 98067XZ  26199.07280907  .00034011  00000+0  37689-3 0  9994
2 67683  51.6275 138.8026 0007917 337.9309  22.1343 15.62605935 25109
